{"type":"FeatureCollection","features":[{"type":"Feature","properties":{"featurecla":"Admin-1 states provinces","scalerank":2,"adm1_code":"BRA-624","diss_me":624,"iso_3166_2":"BR-BA","wikipedia":null,"iso_a2":"BR","adm0_sr":5,"name":"Bahia","name_alt":"Ba\u00a1a","name_local":null,"type":"Estado","type_en":"State","code_local":null,"code_hasc":"BR.BA","note":null,"hasc_maybe":null,"region":null,"region_cod":null,"provnum_ne":10,"gadm_level":1,"check_me":20,"datarank":1,"abbrev":"Bahia","postal":"BA","area_sqkm":0,"sameascity":-99,"labelrank":2,"name_len":5,"mapcolor9":5,"mapcolor13":7,"fips":"BR05","fips_alt":null,"woe_id":2344848,"woe_label":"Bahia, BR, Brazil","woe_name":"Bahia","latitude":-12.3651,"longitude":-41.8027,"sov_a3":"BRA","adm0_a3":"BRA","adm0_label":2,"admin":"Brazil","geonunit":"Brazil","gu_a3":"BRA","gn_id":3471168,"gn_name":"Estado da Bahia","gns_id":-626942,"gns_name":"Bahia, Estado da","gn_level":1,"gn_region":null,"gn_a1_code":"BR.05","region_sub":null,"sub_code":null,"gns_level":1,"gns_lang":"por","gns_adm1":"BR05","gns_region":null,"min_label":3.7,"max_label":8.5,"min_zoom":3,"wikidataid":"Q40430","name_ar":"\u0628\u0627\u0647\u064a\u0627","name_bn":"\u09ac\u09be\u09b9\u09bf\u09af\u09bc\u09be","name_de":"Bahia","name_en":"Bahia","name_es":"Bah\u00eda","name_fr":"Bahia","name_el":"\u039c\u03c0\u03b1\u0390\u03b1","name_hi":"\u092c\u093e\u0939\u093f\u092f\u093e","name_hu":"Bahia","name_id":"Bahia","name_it":"Bahia","name_ja":"\u30d0\u30a4\u30fc\u30a2\u5dde","name_ko":"\ubc14\uc774\uc544","name_nl":"Bahia","name_pl":"Bahia","name_pt":"Bahia","name_ru":"\u0411\u0430\u0438\u044f","name_sv":"Bahia","name_tr":"Bahia","name_vi":"Bahia","name_zh":"\u5df4\u4f0a\u4e9a","ne_id":1159307841,"name_he":"\u05d1\u05d0\u05d4\u05d9\u05d4","name_uk":"\u0411\u0430\u0457\u044f","name_ur":"\u0628\u0627\u06c1\u06cc\u0627","name_fa":"\u0628\u0627\u0647\u06cc\u0627","name_zht":"\u5df4\u4f0a\u4e9e\u5dde","FCLASS_ISO":null,"FCLASS_US":null,"FCLASS_FR":null,"FCLASS_RU":null,"FCLASS_ES":null,"FCLASS_CN":null,"FCLASS_TW":null,"FCLASS_IN":null,"FCLASS_NP":null,"FCLASS_PK":null,"FCLASS_DE":null,"FCLASS_GB":null,"FCLASS_BR":null,"FCLASS_IL":null,"FCLASS_PS":null,"FCLASS_SA":null,"FCLASS_EG":null,"FCLASS_MA":null,"FCLASS_PT":null,"FCLASS_AR":null,"FCLASS_JP":null,"FCLASS_KO":null,"FCLASS_VN":null,"FCLASS_TR":null,"FCLASS_ID":null,"FCLASS_PL":null,"FCLASS_GR":null,"FCLASS_IT":null,"FCLASS_NL":null,"FCLASS_SE":null,"FCLASS_BD":null,"FCLASS_UA":null,"FCLASS_TLC":null},"bbox":[-46.571855,-18.32322,-37.360829,-8.528626],"geometry":{"type":"MultiPolygon","coordinates":[[[[-37.482776,-11.518331],[-37.474843,-11.520115],[-37.453847,-11.517673],[-37.432769,-11.511163],[-37.415395,-11.503188],[-37.401967,-11.490981],[-37.38976,-11.474379],[-37.37678,-11.460219],[-37.360829,-11.454848],[-37.368235,-11.47381],[-37.434722,-11.569268],[-37.509185,-11.72381],[-37.513417,-11.760675],[-37.522817,-11.776137],[-37.545766,-11.804376],[-37.604237,-11.949965],[-37.631744,-11.995294],[-37.654652,-12.049737],[-37.717641,-12.136407],[-37.78671,-12.264634],[-37.871175,-12.382263],[-37.93339,-12.475376],[-37.998525,-12.562188],[-38.050893,-12.641046],[-38.063466,-12.647231],[-38.073964,-12.653904],[-38.145497,-12.73504],[-38.213246,-12.820001],[-38.291371,-12.894952],[-38.320424,-12.935235],[-38.339996,-12.950291],[-38.361399,-12.961847],[-38.371938,-12.965265],[-38.394276,-12.968438],[-38.406117,-12.968845],[-38.416249,-12.973077],[-38.437001,-12.992364],[-38.464955,-13.002374],[-38.48644,-13.013767],[-38.509674,-13.021417],[-38.532704,-13.016534],[-38.538319,-13.004002],[-38.518381,-12.966892],[-38.507924,-12.931817],[-38.497792,-12.91839],[-38.486195,-12.915948],[-38.477406,-12.935235],[-38.479075,-12.915948],[-38.48705,-12.898858],[-38.4912,-12.882013],[-38.475657,-12.851658],[-38.480092,-12.842218],[-38.48766,-12.834731],[-38.49177,-12.82936],[-38.492299,-12.822442],[-38.49413,-12.817641],[-38.502268,-12.808282],[-38.504058,-12.804132],[-38.502268,-12.800551],[-38.499745,-12.796563],[-38.499135,-12.791192],[-38.508901,-12.722914],[-38.526967,-12.723077],[-38.542388,-12.721612],[-38.557485,-12.715509],[-38.57429,-12.701837],[-38.605946,-12.713637],[-38.62621,-12.702407],[-38.637603,-12.680759],[-38.64859,-12.63836],[-38.656158,-12.633722],[-38.667144,-12.634047],[-38.683461,-12.626723],[-38.694569,-12.614028],[-38.69518,-12.602797],[-38.691803,-12.589776],[-38.690989,-12.571466],[-38.697133,-12.571466],[-38.71581,-12.605076],[-38.722076,-12.622491],[-38.724477,-12.643487],[-38.724477,-12.671075],[-38.726308,-12.678888],[-38.730336,-12.682387],[-38.734975,-12.684503],[-38.738149,-12.687595],[-38.750966,-12.712823],[-38.750396,-12.724542],[-38.738149,-12.736586],[-38.777211,-12.80755],[-38.789947,-12.818536],[-38.795481,-12.821466],[-38.80663,-12.835138],[-38.813832,-12.839044],[-38.824452,-12.838149],[-38.835561,-12.828383],[-38.844879,-12.825942],[-38.855824,-12.816827],[-38.864003,-12.795099],[-38.882721,-12.722101],[-38.881174,-12.705336],[-38.869862,-12.692071],[-38.848012,-12.674493],[-38.861684,-12.654067],[-38.868479,-12.654067],[-38.863393,-12.669854],[-38.869862,-12.67783],[-38.882436,-12.684177],[-38.895823,-12.695001],[-38.903188,-12.709405],[-38.905832,-12.721775],[-38.910512,-12.731052],[-38.923695,-12.736586],[-38.914662,-12.748468],[-38.903676,-12.772393],[-38.895823,-12.784356],[-38.88801,-12.79046],[-38.8815,-12.791681],[-38.875356,-12.794529],[-38.868479,-12.804864],[-38.869211,-12.809015],[-38.86913,-12.820571],[-38.867014,-12.834649],[-38.861684,-12.84588],[-38.853993,-12.851251],[-38.834299,-12.86061],[-38.827504,-12.866957],[-38.812123,-12.853692],[-38.803619,-12.848728],[-38.797109,-12.849298],[-38.792795,-12.856703],[-38.788808,-12.866632],[-38.783681,-12.872979],[-38.77599,-12.87005],[-38.765452,-12.864679],[-38.752309,-12.864435],[-38.738026,-12.867934],[-38.724477,-12.873224],[-38.733713,-12.879571],[-38.736318,-12.882745],[-38.742177,-12.897149],[-38.746938,-12.904555],[-38.750803,-12.912774],[-38.752431,-12.924981],[-38.751332,-12.946384],[-38.752105,-12.957289],[-38.755849,-12.965427],[-38.767445,-12.979181],[-38.786855,-13.008071],[-38.800893,-13.024021],[-38.815541,-13.036716],[-38.835113,-13.050063],[-38.857086,-13.060642],[-38.879018,-13.064874],[-38.889272,-13.069757],[-38.895009,-13.080987],[-38.896881,-13.094659],[-38.895823,-13.106541],[-38.893381,-13.113458],[-38.88976,-13.118422],[-38.884145,-13.122328],[-38.875356,-13.126397],[-38.806996,-13.143813],[-38.810658,-13.153497],[-38.819569,-13.156671],[-38.830922,-13.15781],[-38.841786,-13.161228],[-38.851796,-13.168878],[-38.875356,-13.195408],[-38.931752,-13.233005],[-38.947621,-13.246759],[-38.957509,-13.264825],[-38.96349,-13.305841],[-38.970855,-13.325616],[-38.956858,-13.356622],[-38.954579,-13.372491],[-38.964711,-13.380304],[-38.989613,-13.363946],[-38.99885,-13.360447],[-39.009592,-13.360284],[-39.039784,-13.366632],[-39.037668,-13.357843],[-39.036977,-13.350193],[-39.037709,-13.341974],[-39.039784,-13.332452],[-39.062489,-13.399998],[-39.068227,-13.440606],[-39.060292,-13.47031],[-39.071034,-13.480076],[-39.079945,-13.495294],[-39.086008,-13.514093],[-39.088206,-13.534275],[-39.084218,-13.57879],[-39.09142,-13.593683],[-39.115549,-13.599379],[-39.115549,-13.606134],[-39.086659,-13.603936],[-39.077382,-13.59002],[-39.0808,-13.541111],[-39.075022,-13.517267],[-39.059682,-13.494806],[-39.037668,-13.484552],[-39.01183,-13.497003],[-39.007069,-13.504815],[-39.003163,-13.522556],[-38.995432,-13.534275],[-38.992991,-13.541111],[-38.996938,-13.547052],[-39.002675,-13.553481],[-39.005686,-13.561782],[-39.001943,-13.588067],[-38.992787,-13.60768],[-38.981435,-13.625746],[-38.970855,-13.647719],[-38.967844,-13.674005],[-38.975738,-13.69256],[-38.986562,-13.710219],[-38.992014,-13.733087],[-38.994211,-13.79461],[-38.992014,-13.81227],[-38.981842,-13.827569],[-38.97997,-13.83587],[-38.988596,-13.839532],[-39.001698,-13.83766],[-39.01122,-13.832452],[-39.029897,-13.815362],[-39.037343,-13.805352],[-39.040761,-13.794041],[-39.042877,-13.782322],[-39.04662,-13.771254],[-39.053578,-13.760919],[-39.06017,-13.755141],[-39.066965,-13.750421],[-39.074534,-13.743341],[-39.079579,-13.740981],[-39.083974,-13.741957],[-39.087026,-13.741143],[-39.091624,-13.71266],[-39.09968,-13.708917],[-39.110951,-13.708185],[-39.132558,-13.709242],[-39.141103,-13.719171],[-39.148752,-13.736912],[-39.144032,-13.744317],[-39.115549,-13.723565],[-39.110015,-13.731703],[-39.108266,-13.740411],[-39.110097,-13.749119],[-39.115549,-13.757582],[-39.071604,-13.779555],[-39.060292,-13.791762],[-39.043202,-13.826349],[-39.032135,-13.84059],[-38.997711,-13.851739],[-38.994456,-13.863458],[-38.999989,-13.875177],[-39.008778,-13.880548],[-39.034901,-13.879653],[-39.04894,-13.875909],[-39.067128,-13.867446],[-39.074534,-13.89422],[-39.071156,-13.90309],[-39.06371,-13.935805],[-39.057485,-13.937921],[-39.041249,-13.947198],[-39.021596,-13.955662],[-39.007395,-13.969659],[-38.996693,-13.98561],[-38.992014,-13.997247],[-38.992828,-14.009047],[-38.995595,-14.019138],[-38.995676,-14.029229],[-38.982818,-14.050714],[-38.979563,-14.06113],[-38.980824,-14.069513],[-38.988596,-14.072931],[-39.027903,-14.078302],[-39.039866,-14.075128],[-39.054067,-14.059259],[-39.071034,-14.076349],[-39.072865,-14.08587],[-39.060292,-14.099705],[-39.066803,-14.105645],[-39.072906,-14.115167],[-39.076243,-14.127374],[-39.074534,-14.140558],[-39.066721,-14.150079],[-39.055898,-14.155043],[-39.045644,-14.161391],[-39.039784,-14.175388],[-39.033599,-14.175388],[-39.057037,-14.133559],[-39.063385,-14.109959],[-39.043202,-14.099705],[-39.024281,-14.096856],[-39.002838,-14.089532],[-38.957265,-14.066095],[-38.959096,-14.057306],[-38.958363,-14.045994],[-38.959706,-14.036228],[-38.967844,-14.031915],[-38.972279,-14.026625],[-38.970693,-14.014825],[-38.964711,-13.997247],[-38.965321,-13.991957],[-38.969106,-13.98919],[-38.971425,-13.986261],[-38.967844,-13.980564],[-38.963043,-13.978285],[-38.952952,-13.976983],[-38.951039,-13.973565],[-38.95287,-13.962579],[-38.958079,-13.955987],[-38.966664,-13.952081],[-38.978342,-13.949395],[-38.975657,-13.945733],[-38.970855,-13.935805],[-38.987538,-13.939874],[-38.98998,-13.930841],[-38.983754,-13.916274],[-38.974599,-13.904474],[-38.963857,-13.897068],[-38.948883,-13.890313],[-38.935658,-13.88893],[-38.929921,-13.897638],[-38.929067,-13.983168],[-38.923695,-14.004083],[-38.946685,-14.102309],[-38.959299,-14.122166],[-38.964711,-14.133722],[-38.966868,-14.145929],[-38.968373,-14.170017],[-38.970855,-14.181573],[-38.989247,-14.212335],[-38.992014,-14.226658],[-38.992014,-14.267836],[-38.984202,-14.299412],[-38.985178,-14.312595],[-38.992096,-14.324965],[-39.000722,-14.335707],[-39.004994,-14.346856],[-38.99885,-14.360284],[-39.006947,-14.370294],[-39.007639,-14.383233],[-39.005605,-14.398207],[-39.005686,-14.414972],[-39.026112,-14.463311],[-39.033599,-14.539158],[-39.051422,-14.591974],[-39.056264,-14.622247],[-39.065582,-14.65488],[-39.067128,-14.674981],[-39.054067,-14.754083],[-39.050852,-14.765802],[-39.036733,-14.779474],[-39.033599,-14.79225],[-39.045644,-14.796075],[-39.052968,-14.801365],[-39.054067,-14.812188],[-39.048248,-14.818617],[-39.039215,-14.81756],[-39.029693,-14.81463],[-39.022694,-14.815851],[-39.026112,-14.857192],[-39.022939,-14.900323],[-39.008901,-14.97088],[-39.00182,-15.232029],[-38.979644,-15.323663],[-38.973256,-15.409356],[-38.943267,-15.565362],[-38.923899,-15.71559],[-38.904897,-15.757501],[-38.892405,-15.774998],[-38.88858,-15.782892],[-38.882721,-15.812677],[-38.877919,-15.822361],[-38.864369,-15.843357],[-38.861684,-15.854262],[-38.867014,-15.869724],[-38.890492,-15.904392],[-38.895823,-15.918878],[-38.898752,-15.940037],[-38.923695,-16.005141],[-38.924184,-16.023614],[-38.929555,-16.038344],[-38.944203,-16.066583],[-38.947865,-16.081476],[-38.952748,-16.167087],[-38.957265,-16.183282],[-38.998036,-16.252862],[-39.00536,-16.275079],[-39.00768,-16.299249],[-39.005686,-16.326593],[-39.006907,-16.359308],[-39.018381,-16.383071],[-39.054067,-16.436456],[-39.049631,-16.447035],[-39.050649,-16.45672],[-39.060292,-16.478123],[-39.092275,-16.65781],[-39.135976,-16.800226],[-39.135976,-16.844659],[-39.133778,-16.855727],[-39.121693,-16.878513],[-39.121571,-16.892022],[-39.123606,-16.897882],[-39.149648,-16.950453],[-39.168813,-17.075942],[-39.183746,-17.114923],[-39.202056,-17.14422],[-39.208608,-17.162205],[-39.217356,-17.295099],[-39.209055,-17.382094],[-39.190012,-17.430271],[-39.186269,-17.452081],[-39.188385,-17.578383],[-39.183746,-17.600844],[-39.166737,-17.633966],[-39.146962,-17.657159],[-39.137115,-17.67962],[-39.149648,-17.710707],[-39.258901,-17.820733],[-39.268219,-17.836521],[-39.271352,-17.846287],[-39.272572,-17.858575],[-39.275054,-17.866876],[-39.281361,-17.871026],[-39.289296,-17.874119],[-39.314198,-17.890313],[-39.382395,-17.903253],[-39.417836,-17.920994],[-39.450185,-17.948012],[-39.499094,-18.005629],[-39.624989,-18.192641],[-39.659413,-18.273614],[-39.672609,-18.32322],[-40.184493,-18.00934],[-40.206843,-17.978541],[-40.226635,-17.935546],[-40.229348,-17.917356],[-40.227591,-17.912033],[-40.22294,-17.902576],[-40.217152,-17.894256],[-40.200977,-17.875084],[-40.197153,-17.867798],[-40.192993,-17.857773],[-40.186973,-17.837412],[-40.185474,-17.826198],[-40.185345,-17.81793],[-40.18718,-17.810075],[-40.193768,-17.791007],[-40.207049,-17.76584],[-40.23082,-17.742793],[-40.243352,-17.734731],[-40.283737,-17.716593],[-40.293194,-17.710288],[-40.298697,-17.704087],[-40.302728,-17.691685],[-40.30663,-17.68383],[-40.31495,-17.672048],[-40.320893,-17.666105],[-40.326319,-17.661712],[-40.367375,-17.637373],[-40.375902,-17.630396],[-40.381638,-17.624402],[-40.385798,-17.614635],[-40.394609,-17.581666],[-40.401508,-17.568643],[-40.406675,-17.562494],[-40.41236,-17.558618],[-40.424426,-17.556396],[-40.43812,-17.556292],[-40.450549,-17.558101],[-40.455923,-17.559806],[-40.462718,-17.561047],[-40.470418,-17.561253],[-40.482381,-17.558308],[-40.487859,-17.55407],[-40.49127,-17.548696],[-40.495843,-17.525648],[-40.496205,-17.519447],[-40.495352,-17.5072],[-40.493879,-17.500379],[-40.479436,-17.465497],[-40.478635,-17.459709],[-40.479565,-17.451803],[-40.48189,-17.442759],[-40.487859,-17.428755],[-40.492587,-17.422244],[-40.497626,-17.418833],[-40.500752,-17.418833],[-40.504809,-17.420073],[-40.508762,-17.422295],[-40.51672,-17.428445],[-40.521733,-17.430512],[-40.527211,-17.431132],[-40.534032,-17.428652],[-40.537468,-17.424569],[-40.53845,-17.418833],[-40.537288,-17.413459],[-40.535195,-17.408653],[-40.532507,-17.404364],[-40.517185,-17.384417],[-40.515144,-17.378784],[-40.514317,-17.372944],[-40.517005,-17.364263],[-40.521733,-17.361421],[-40.526616,-17.361627],[-40.535582,-17.366743],[-40.54106,-17.368139],[-40.552635,-17.369792],[-40.557235,-17.372169],[-40.560594,-17.375838],[-40.563126,-17.380334],[-40.570955,-17.400643],[-40.573564,-17.405087],[-40.576691,-17.408963],[-40.582608,-17.41072],[-40.589998,-17.410255],[-40.602348,-17.404467],[-40.607335,-17.398473],[-40.609557,-17.391651],[-40.609195,-17.385295],[-40.605526,-17.360697],[-40.603382,-17.313362],[-40.60103,-17.301683],[-40.594106,-17.287472],[-40.591057,-17.283441],[-40.587104,-17.28034],[-40.572324,-17.273726],[-40.5685,-17.270522],[-40.565529,-17.266491],[-40.563229,-17.261788],[-40.561989,-17.254864],[-40.561575,-17.246389],[-40.564211,-17.223548],[-40.564314,-17.215435],[-40.562299,-17.203652],[-40.5608,-17.19802],[-40.560749,-17.18908],[-40.562041,-17.177504],[-40.574107,-17.134458],[-40.573823,-17.12159],[-40.567802,-17.099318],[-40.551137,-17.059734],[-40.525169,-16.930542],[-40.520751,-16.920931],[-40.517883,-16.916745],[-40.514627,-16.912869],[-40.493337,-16.892095],[-40.490469,-16.887961],[-40.482898,-16.874319],[-40.47972,-16.870805],[-40.475638,-16.868789],[-40.470832,-16.869099],[-40.442435,-16.878659],[-40.408071,-16.88455],[-40.331409,-16.88393],[-40.309369,-16.88176],[-40.295416,-16.879176],[-40.291489,-16.876076],[-40.285365,-16.868324],[-40.282729,-16.863983],[-40.277097,-16.859177],[-40.269294,-16.854061],[-40.253558,-16.846],[-40.246866,-16.839695],[-40.243352,-16.833184],[-40.243455,-16.827138],[-40.244127,-16.821092],[-40.246866,-16.810085],[-40.255212,-16.790654],[-40.260767,-16.782231],[-40.278259,-16.764661],[-40.280947,-16.76032],[-40.282574,-16.755049],[-40.283065,-16.749107],[-40.282729,-16.74306],[-40.271697,-16.683891],[-40.269681,-16.644358],[-40.273014,-16.613559],[-40.272627,-16.605343],[-40.270844,-16.595679],[-40.265728,-16.5809],[-40.261387,-16.573355],[-40.256917,-16.568084],[-40.252628,-16.565449],[-40.196068,-16.544571],[-40.183847,-16.543538],[-40.172349,-16.54607],[-40.161729,-16.549687],[-40.155554,-16.550876],[-40.149043,-16.550772],[-40.141601,-16.548292],[-40.137441,-16.544261],[-40.135245,-16.53899],[-40.135116,-16.532996],[-40.136175,-16.527518],[-40.139457,-16.517131],[-40.133281,-16.502197],[-40.057188,-16.394968],[-39.985719,-16.35311],[-39.970139,-16.341276],[-39.946161,-16.319314],[-39.94058,-16.313216],[-39.929624,-16.296059],[-39.919392,-16.271306],[-39.91686,-16.259421],[-39.915904,-16.243453],[-39.914199,-16.217304],[-39.909161,-16.201181],[-39.894484,-16.170434],[-39.888903,-16.160925],[-39.883632,-16.154879],[-39.872109,-16.15152],[-39.864615,-16.146611],[-39.861282,-16.135604],[-39.86074,-16.128008],[-39.861825,-16.121186],[-39.865571,-16.110954],[-39.87601,-16.093694],[-39.878542,-16.088578],[-39.882392,-16.074419],[-39.88464,-16.06858],[-39.887353,-16.063774],[-39.890454,-16.059898],[-39.906499,-16.047651],[-39.91314,-16.040364],[-39.921485,-16.02791],[-39.926756,-16.015921],[-39.928074,-16.010599],[-39.93505,-16.00109],[-39.95784,-15.994321],[-39.974738,-15.994889],[-39.985254,-15.997111],[-39.992153,-15.997059],[-39.99776,-15.996336],[-40.00471,-15.993804],[-40.032771,-15.978869],[-40.038998,-15.974528],[-40.043674,-15.970291],[-40.048764,-15.961661],[-40.053855,-15.946468],[-40.061012,-15.938097],[-40.07313,-15.927813],[-40.102715,-15.906884],[-40.117856,-15.898254],[-40.131033,-15.892466],[-40.138139,-15.892053],[-40.144702,-15.892518],[-40.156019,-15.895619],[-40.162478,-15.896652],[-40.170152,-15.896652],[-40.174183,-15.893862],[-40.175036,-15.889211],[-40.174106,-15.8781],[-40.176198,-15.872054],[-40.181521,-15.869005],[-40.198238,-15.865078],[-40.204181,-15.862287],[-40.208135,-15.858618],[-40.209401,-15.854277],[-40.208367,-15.849782],[-40.207592,-15.84389],[-40.207824,-15.837586],[-40.213044,-15.827612],[-40.218547,-15.823117],[-40.224723,-15.820068],[-40.236867,-15.818156],[-40.288078,-15.819241],[-40.294253,-15.820016],[-40.310841,-15.824253],[-40.33084,-15.824512],[-40.354095,-15.820378],[-40.384739,-15.811128],[-40.463778,-15.777021],[-40.474759,-15.774231],[-40.479048,-15.775833],[-40.496696,-15.784153],[-40.500287,-15.785134],[-40.515997,-15.787098],[-40.521113,-15.788907],[-40.525479,-15.791542],[-40.530156,-15.79485],[-40.535505,-15.797743],[-40.544806,-15.79857],[-40.550155,-15.796503],[-40.554289,-15.792938],[-40.574288,-15.758056],[-40.583564,-15.751028],[-40.634233,-15.725035],[-40.65095,-15.71873],[-40.663275,-15.71594],[-40.669373,-15.71656],[-40.697278,-15.723536],[-40.7072,-15.72767],[-40.725467,-15.737592],[-40.738748,-15.741726],[-40.750065,-15.742501],[-40.756861,-15.741003],[-40.761822,-15.738005],[-40.785179,-15.706018],[-40.790631,-15.701264],[-40.798202,-15.695837],[-40.813111,-15.687156],[-40.822696,-15.684004],[-40.830758,-15.68235],[-40.836081,-15.682918],[-40.841352,-15.684055],[-40.860808,-15.692427],[-40.872719,-15.695837],[-40.880497,-15.696613],[-40.892098,-15.696458],[-40.901038,-15.692582],[-40.927393,-15.677544],[-40.937005,-15.674288],[-40.944911,-15.673513],[-40.950286,-15.674805],[-40.955092,-15.676924],[-40.963386,-15.682815],[-40.968476,-15.684675],[-40.979483,-15.687466],[-40.983875,-15.689895],[-40.987467,-15.693202],[-40.995968,-15.705036],[-41.029867,-15.734491],[-41.05462,-15.744413],[-41.094127,-15.75325],[-41.140016,-15.778571],[-41.15756,-15.781052],[-41.187506,-15.761828],[-41.192416,-15.759555],[-41.200994,-15.757126],[-41.248045,-15.750149],[-41.294373,-15.737437],[-41.322459,-15.742036],[-41.330986,-15.716818],[-41.360596,-15.49523],[-41.499942,-15.368777],[-41.801422,-15.10962],[-41.815194,-15.116545],[-41.820129,-15.118457],[-41.825788,-15.119542],[-41.850773,-15.12073],[-41.855269,-15.122332],[-41.859197,-15.125278],[-41.86222,-15.128999],[-41.869351,-15.13582],[-41.88612,-15.146775],[-41.919555,-15.161917],[-41.924025,-15.164552],[-41.933843,-15.168583],[-41.938339,-15.17096],[-41.944695,-15.172769],[-41.952834,-15.173182],[-41.98552,-15.166619],[-41.996527,-15.166619],[-42.02314,-15.171683],[-42.03531,-15.17096],[-42.043242,-15.171632],[-42.049676,-15.172924],[-42.070398,-15.181089],[-42.07709,-15.182484],[-42.087296,-15.18176],[-42.092619,-15.178608],[-42.095952,-15.174009],[-42.098174,-15.16941],[-42.10081,-15.165172],[-42.114271,-15.150651],[-42.119568,-15.146414],[-42.140497,-15.135355],[-42.147474,-15.130497],[-42.152228,-15.125743],[-42.158997,-15.115046],[-42.165586,-15.10838],[-42.1714,-15.105899],[-42.176955,-15.105899],[-42.193285,-15.116906],[-42.198091,-15.118922],[-42.209459,-15.118715],[-42.260076,-15.107811],[-42.285579,-15.098923],[-42.306404,-15.086314],[-42.429575,-15.032519],[-42.461976,-15.007146],[-42.475076,-15.000118],[-42.487065,-14.9857],[-42.494119,-14.978724],[-42.521482,-14.960172],[-42.55595,-14.947718],[-42.569231,-14.933972],[-42.574734,-14.931646],[-42.580445,-14.931181],[-42.61729,-14.938519],[-42.630752,-14.939088],[-42.639743,-14.936452],[-42.648632,-14.932318],[-42.667416,-14.920019],[-42.672403,-14.915472],[-42.681524,-14.903948],[-42.688526,-14.898057],[-42.73736,-14.867878],[-42.748961,-14.855837],[-42.795031,-14.821627],[-42.81273,-14.804367],[-42.890891,-14.749487],[-42.897815,-14.742304],[-42.900787,-14.738118],[-42.912285,-14.715174],[-42.916936,-14.708973],[-42.923654,-14.701686],[-42.937554,-14.689077],[-42.945874,-14.683186],[-42.953006,-14.679465],[-42.96515,-14.67776],[-42.982926,-14.680189],[-42.991246,-14.679],[-43.034474,-14.662102],[-43.046643,-14.661172],[-43.058452,-14.662412],[-43.064472,-14.661999],[-43.108914,-14.653782],[-43.132814,-14.643499],[-43.159608,-14.63492],[-43.177436,-14.633008],[-43.210406,-14.6343],[-43.222576,-14.635954],[-43.228286,-14.637246],[-43.248182,-14.645049],[-43.281539,-14.652955],[-43.385848,-14.701221],[-43.390007,-14.704167],[-43.393728,-14.707422],[-43.396596,-14.711453],[-43.398922,-14.716104],[-43.401402,-14.727369],[-43.403469,-14.73233],[-43.406415,-14.736413],[-43.40998,-14.739824],[-43.421969,-14.748764],[-43.428842,-14.75574],[-43.431865,-14.759719],[-43.439746,-14.771966],[-43.442537,-14.774963],[-43.447963,-14.778477],[-43.49243,-14.788554],[-43.706371,-14.736413],[-43.710401,-14.734191],[-43.717765,-14.72246],[-43.729573,-14.714399],[-43.737557,-14.710678],[-43.825511,-14.693573],[-43.835019,-14.690628],[-43.843933,-14.685512],[-43.848713,-14.682049],[-43.859979,-14.670577],[-43.863829,-14.665048],[-43.866516,-14.659622],[-43.869151,-14.64877],[-43.869771,-14.643189],[-43.869229,-14.637504],[-43.867679,-14.632233],[-43.865689,-14.627272],[-43.864371,-14.621846],[-43.864061,-14.6158],[-43.865379,-14.603966],[-43.866593,-14.598488],[-43.868764,-14.592597],[-43.877058,-14.579058],[-43.879693,-14.573735],[-43.882768,-14.561695],[-43.872898,-14.527743],[-43.871709,-14.514824],[-43.867317,-14.499786],[-43.848145,-14.468264],[-43.83799,-14.425631],[-43.823754,-14.394418],[-43.805719,-14.365945],[-43.791637,-14.344395],[-43.794117,-14.341036],[-43.809749,-14.332768],[-43.822436,-14.322588],[-43.830497,-14.317989],[-43.837706,-14.315818],[-43.843468,-14.316387],[-43.848894,-14.317627],[-43.855302,-14.317627],[-43.862924,-14.315612],[-43.880985,-14.30631],[-43.8876,-14.303829],[-43.893413,-14.302641],[-43.899718,-14.302434],[-43.905842,-14.302951],[-43.917288,-14.30507],[-43.924083,-14.305535],[-43.94757,-14.30445],[-43.954211,-14.302279],[-43.976793,-14.285174],[-43.98979,-14.277423],[-43.997206,-14.274581],[-44.002141,-14.273444],[-44.006817,-14.274322],[-44.010977,-14.276493],[-44.02369,-14.284554],[-44.028341,-14.286673],[-44.035524,-14.286673],[-44.04467,-14.284192],[-44.060483,-14.277836],[-44.070638,-14.275407],[-44.079629,-14.274167],[-44.090249,-14.270912],[-44.09844,-14.269826],[-44.105468,-14.269826],[-44.110971,-14.271118],[-44.119291,-14.277216],[-44.1242,-14.278353],[-44.13159,-14.276958],[-44.136654,-14.271893],[-44.142752,-14.269826],[-44.148566,-14.269206],[-44.15978,-14.271067],[-44.167764,-14.269568],[-44.177634,-14.265796],[-44.195385,-14.255564],[-44.20479,-14.248432],[-44.213006,-14.240319],[-44.217967,-14.238924],[-44.221895,-14.240267],[-44.22577,-14.242645],[-44.229775,-14.244298],[-44.232798,-14.247812],[-44.234814,-14.25236],[-44.237914,-14.256184],[-44.24303,-14.257631],[-44.249542,-14.256804],[-44.265871,-14.250499],[-44.272615,-14.249207],[-44.278377,-14.249104],[-44.289152,-14.251998],[-44.29618,-14.252205],[-44.314447,-14.246727],[-44.320803,-14.245693],[-44.325273,-14.247192],[-44.333567,-14.252515],[-44.352274,-14.268276],[-44.360568,-14.273237],[-44.372144,-14.274632],[-44.405682,-14.282797],[-44.467487,-14.314992],[-44.562778,-14.345481],[-44.575723,-14.352199],[-44.584689,-14.358503],[-44.613886,-14.374264],[-44.638717,-14.392351],[-44.654013,-14.397932],[-44.661584,-14.40279],[-44.667113,-14.407906],[-44.671195,-14.413177],[-44.689075,-14.426251],[-44.705767,-14.443149],[-44.806536,-14.505316],[-44.818602,-14.510949],[-44.830746,-14.515134],[-44.836302,-14.51901],[-44.83824,-14.523351],[-44.838033,-14.527278],[-44.840022,-14.537355],[-44.855267,-14.559473],[-44.857179,-14.563814],[-44.857437,-14.573167],[-44.859246,-14.578593],[-44.881725,-14.598333],[-45.102099,-14.71905],[-45.121504,-14.725096],[-45.127628,-14.726129],[-45.133596,-14.725509],[-45.138996,-14.724321],[-45.14481,-14.723649],[-45.156075,-14.725509],[-45.171423,-14.730625],[-45.176694,-14.73171],[-45.197933,-14.730987],[-45.209974,-14.733002],[-45.218526,-14.736826],[-45.22434,-14.740444],[-45.228345,-14.744009],[-45.231239,-14.748143],[-45.235502,-14.75791],[-45.238034,-14.762509],[-45.241264,-14.766127],[-45.277722,-14.797494],[-45.28152,-14.801835],[-45.287721,-14.815943],[-45.290357,-14.820129],[-45.298832,-14.829275],[-45.30604,-14.835425],[-45.310976,-14.841161],[-45.320458,-14.855837],[-45.326168,-14.859454],[-45.333196,-14.861935],[-45.351619,-14.866224],[-45.357794,-14.869428],[-45.362574,-14.87289],[-45.378749,-14.889168],[-45.406138,-14.911441],[-45.442854,-14.932422],[-45.461897,-14.939915],[-45.491197,-14.944514],[-45.496597,-14.944514],[-45.500008,-14.943739],[-45.512462,-14.938003],[-45.517862,-14.936194],[-45.523547,-14.934954],[-45.529722,-14.934127],[-45.553312,-14.935677],[-45.558273,-14.938778],[-45.561141,-14.943584],[-45.562821,-14.948855],[-45.565379,-14.953351],[-45.575481,-14.963996],[-45.583259,-14.973969],[-45.594421,-14.985493],[-45.597676,-14.990506],[-45.601914,-15.000531],[-45.602715,-15.001926],[-45.605919,-15.006526],[-45.625065,-15.023579],[-45.638733,-15.0304],[-45.655787,-15.042492],[-45.659145,-15.047453],[-45.663099,-15.057479],[-45.668628,-15.079906],[-45.679144,-15.093807],[-45.714646,-15.124658],[-45.747073,-15.144243],[-45.753016,-15.14538],[-45.76454,-15.146104],[-45.837817,-15.135355],[-45.850348,-15.131738],[-45.904919,-15.124761],[-45.917347,-15.124968],[-45.925899,-15.126983],[-45.929568,-15.130187],[-45.935563,-15.13799],[-45.945149,-15.156387],[-45.951117,-15.164294],[-45.95458,-15.167808],[-45.965845,-15.184654],[-45.969101,-15.188427],[-45.974294,-15.191992],[-45.981038,-15.195558],[-46.031397,-15.21597],[-46.037908,-15.220621],[-46.044858,-15.226977],[-46.057416,-15.241653],[-46.066046,-15.246304],[-46.073358,-15.247183],[-46.079327,-15.243049],[-46.082608,-15.238398],[-46.084029,-15.233075],[-46.083564,-15.227391],[-46.082143,-15.222171],[-46.07328,-15.203206],[-46.070645,-15.198762],[-46.058165,-15.183311],[-46.038089,-15.147344],[-46.019899,-15.10254],[-46.012612,-15.06771],[-45.995559,-15.028075],[-45.990107,-15.019548],[-45.977653,-15.00482],[-45.975534,-15.000996],[-45.974785,-14.998206],[-45.974553,-14.993555],[-45.975534,-14.988646],[-45.977266,-14.983788],[-46.002484,-14.946994],[-46.004783,-14.942498],[-46.006334,-14.937279],[-46.007031,-14.9179],[-46.007858,-14.912061],[-46.018788,-14.888858],[-46.021759,-14.879195],[-46.022999,-14.868808],[-45.972821,-14.79212],[-45.954347,-14.769382],[-45.931532,-14.747213],[-45.924478,-14.736206],[-45.919595,-14.724734],[-45.915021,-14.709024],[-45.912463,-14.691403],[-45.916675,-14.663342],[-45.922618,-14.642568],[-45.926649,-14.619727],[-45.94551,-14.578438],[-45.955665,-14.56123],[-45.957654,-14.556372],[-45.963571,-14.535237],[-45.966,-14.513687],[-45.966181,-14.488779],[-45.965096,-14.476429],[-45.96308,-14.467644],[-45.936157,-14.417724],[-45.921223,-14.371526],[-45.91975,-14.359227],[-45.920473,-14.350752],[-45.923264,-14.346618],[-45.926674,-14.343207],[-45.930731,-14.34021],[-45.935098,-14.337574],[-45.961401,-14.328169],[-46.003931,-14.306207],[-46.007341,-14.303364],[-46.010519,-14.29985],[-46.037882,-14.251843],[-46.058243,-14.230552],[-46.065839,-14.224454],[-46.118394,-14.196342],[-46.122115,-14.193087],[-46.125629,-14.188901],[-46.128523,-14.18394],[-46.170225,-14.072887],[-46.175781,-14.062759],[-46.223039,-13.99775],[-46.259651,-13.868559],[-46.275077,-13.75022],[-46.272441,-13.656892],[-46.271124,-13.651053],[-46.264535,-13.63679],[-46.25252,-13.59178],[-46.232909,-13.541292],[-46.214099,-13.465121],[-46.196451,-13.41856],[-46.186555,-13.404815],[-46.149038,-13.387141],[-46.128342,-13.374222],[-46.097878,-13.350296],[-46.088887,-13.341563],[-46.082866,-13.333966],[-46.080308,-13.32761],[-46.075528,-13.309317],[-46.073668,-13.294899],[-46.073901,-13.269577],[-46.074986,-13.2641],[-46.07682,-13.259035],[-46.079327,-13.254746],[-46.083151,-13.251594],[-46.152655,-13.228443],[-46.175548,-13.215989],[-46.179269,-13.210925],[-46.180587,-13.192631],[-46.179579,-13.158938],[-46.161595,-13.047162],[-46.156738,-13.036052],[-46.154128,-13.031711],[-46.15095,-13.027835],[-46.093072,-12.988199],[-46.083461,-12.984065],[-46.077931,-12.980499],[-46.072195,-12.975745],[-46.06496,-12.966392],[-46.062273,-12.95926],[-46.061653,-12.952542],[-46.063152,-12.947426],[-46.065167,-12.942621],[-46.070464,-12.934197],[-46.087181,-12.916317],[-46.206657,-12.832601],[-46.220248,-12.816323],[-46.233529,-12.796635],[-46.242624,-12.779013],[-46.245492,-12.762115],[-46.245673,-12.75488],[-46.245053,-12.746819],[-46.240221,-12.727388],[-46.234046,-12.712195],[-46.160097,-12.602641],[-46.157151,-12.594993],[-46.155523,-12.587758],[-46.159554,-12.503009],[-46.160226,-12.500012],[-46.162681,-12.494793],[-46.165213,-12.491072],[-46.16852,-12.487455],[-46.172241,-12.484096],[-46.19025,-12.473864],[-46.200611,-12.47004],[-46.264587,-12.455467],[-46.30231,-12.43676],[-46.31032,-12.430817],[-46.317064,-12.423582],[-46.327606,-12.399243],[-46.343057,-12.352269],[-46.345228,-12.342037],[-46.33913,-12.130164],[-46.335461,-12.109648],[-46.333368,-12.104067],[-46.330991,-12.099261],[-46.327761,-12.095489],[-46.324169,-12.09213],[-46.269418,-12.064225],[-46.256783,-12.056111],[-46.249445,-12.0496],[-46.214331,-12.000559],[-46.213634,-11.999887],[-46.210068,-11.997149],[-46.197743,-11.990017],[-46.135861,-11.969398],[-46.127127,-11.964334],[-46.105578,-11.944335],[-46.097568,-11.938496],[-46.093176,-11.93586],[-46.082763,-11.931313],[-46.076846,-11.928057],[-46.071239,-11.920977],[-46.069947,-11.914931],[-46.071032,-11.90966],[-46.092452,-11.875967],[-46.102452,-11.865425],[-46.118962,-11.853798],[-46.136842,-11.843566],[-46.157074,-11.83566],[-46.168572,-11.832921],[-46.181026,-11.831422],[-46.19379,-11.831887],[-46.216786,-11.836021],[-46.238542,-11.842068],[-46.249988,-11.843721],[-46.255957,-11.843153],[-46.260737,-11.841241],[-46.26531,-11.832973],[-46.269418,-11.820105],[-46.275516,-11.77556],[-46.275335,-11.764656],[-46.272131,-11.753959],[-46.269806,-11.749257],[-46.266938,-11.745174],[-46.260504,-11.737733],[-46.253063,-11.731067],[-46.244588,-11.725951],[-46.191981,-11.7028],[-46.124802,-11.680785],[-46.116275,-11.675256],[-46.112787,-11.671845],[-46.109015,-11.668693],[-46.104803,-11.666058],[-46.099041,-11.65903],[-46.09315,-11.648281],[-46.085192,-11.621978],[-46.083926,-11.609524],[-46.085166,-11.600997],[-46.088835,-11.597741],[-46.101909,-11.589783],[-46.11364,-11.580585],[-46.190793,-11.544825],[-46.279133,-11.519245],[-46.427419,-11.499918],[-46.432509,-11.498781],[-46.441733,-11.495112],[-46.450234,-11.489583],[-46.457753,-11.483175],[-46.460983,-11.479661],[-46.464238,-11.475268],[-46.47801,-11.445089],[-46.48385,-11.428604],[-46.488759,-11.418528],[-46.491446,-11.414342],[-46.497441,-11.40783],[-46.500024,-11.40566],[-46.506536,-11.401371],[-46.54506,-11.383698],[-46.552605,-11.377341],[-46.561158,-11.36313],[-46.567876,-11.346904],[-46.570511,-11.337085],[-46.571855,-11.328611],[-46.571545,-11.322151],[-46.570692,-11.316105],[-46.562191,-11.289905],[-46.557747,-11.279983],[-46.530694,-11.234663],[-46.518318,-11.22164],[-46.508654,-11.217661],[-46.501316,-11.213682],[-46.475969,-11.194252],[-46.468734,-11.186087],[-46.463748,-11.179266],[-46.434111,-11.096532],[-46.384166,-10.990853],[-46.370291,-10.969769],[-46.362488,-10.962948],[-46.34608,-10.951786],[-46.31895,-10.937678],[-46.283164,-10.926103],[-46.265517,-10.922589],[-46.257946,-10.919953],[-46.249549,-10.915612],[-46.236578,-10.905691],[-46.231875,-10.898456],[-46.230403,-10.891893],[-46.232108,-10.886829],[-46.234252,-10.882281],[-46.266705,-10.838718],[-46.271124,-10.82983],[-46.272131,-10.824559],[-46.272131,-10.819081],[-46.272751,-10.813345],[-46.274198,-10.808384],[-46.277247,-10.804612],[-46.281304,-10.801563],[-46.291691,-10.797635],[-46.303189,-10.794948],[-46.307556,-10.790866],[-46.310346,-10.784664],[-46.30877,-10.770867],[-46.306031,-10.763787],[-46.30244,-10.758258],[-46.271279,-10.734073],[-46.257869,-10.726063],[-46.239679,-10.710302],[-46.200999,-10.66679],[-46.193531,-10.660538],[-46.18932,-10.657954],[-46.137773,-10.634079],[-46.128574,-10.627465],[-46.088809,-10.58571],[-46.084546,-10.583075],[-46.06956,-10.577494],[-46.045117,-10.573618],[-46.038554,-10.571602],[-46.006618,-10.547263],[-45.955742,-10.521941],[-45.928483,-10.502149],[-45.918665,-10.496413],[-45.889364,-10.484993],[-45.872259,-10.474606],[-45.857996,-10.46825],[-45.853707,-10.465769],[-45.843114,-10.457863],[-45.819575,-10.436365],[-45.812676,-10.427994],[-45.808284,-10.420759],[-45.806397,-10.415643],[-45.803839,-10.404171],[-45.801437,-10.383087],[-45.79831,-10.372648],[-45.790714,-10.355905],[-45.78428,-10.346035],[-45.778931,-10.339937],[-45.769371,-10.334873],[-45.757692,-10.33079],[-45.635581,-10.329085],[-45.603387,-10.331565],[-45.593568,-10.338077],[-45.580856,-10.348154],[-45.516028,-10.414713],[-45.482696,-10.464012],[-45.473007,-10.481582],[-45.471069,-10.486388],[-45.466031,-10.508764],[-45.464687,-10.533982],[-45.459726,-10.569277],[-45.458383,-10.574703],[-45.441691,-10.614132],[-45.4381,-10.620385],[-45.37893,-10.687461],[-45.340095,-10.755726],[-45.327641,-10.773709],[-45.321595,-10.77867],[-45.315316,-10.781564],[-45.301932,-10.782494],[-45.292656,-10.784974],[-45.281804,-10.789522],[-45.247801,-10.812518],[-45.202507,-10.824249],[-45.182482,-10.834946],[-45.14264,-10.862231],[-45.137575,-10.864194],[-45.120057,-10.868845],[-45.066675,-10.893598],[-45.058304,-10.895665],[-45.050578,-10.896285],[-45.043989,-10.896234],[-45.03169,-10.894425],[-45.021226,-10.891014],[-45.016523,-10.888792],[-45.012208,-10.886209],[-44.999031,-10.876442],[-44.991047,-10.872773],[-44.980841,-10.86931],[-44.945959,-10.863109],[-44.93335,-10.862644],[-44.852812,-10.877734],[-44.836793,-10.879284],[-44.824106,-10.878302],[-44.812892,-10.875873],[-44.803074,-10.872101],[-44.794237,-10.867037],[-44.790206,-10.864091],[-44.786692,-10.86068],[-44.783721,-10.856753],[-44.752689,-10.782701],[-44.749873,-10.778618],[-44.742767,-10.771849],[-44.734137,-10.766629],[-44.693856,-10.751126],[-44.666157,-10.74477],[-44.655641,-10.741049],[-44.651171,-10.738466],[-44.647321,-10.735313],[-44.64391,-10.731799],[-44.64081,-10.727872],[-44.63559,-10.719087],[-44.625384,-10.694489],[-44.622361,-10.690407],[-44.618796,-10.687048],[-44.614584,-10.684412],[-44.604791,-10.680433],[-44.588823,-10.67573],[-44.583991,-10.673612],[-44.579754,-10.67108],[-44.572468,-10.664413],[-44.555466,-10.63966],[-44.551875,-10.636405],[-44.542986,-10.631495],[-44.538025,-10.629635],[-44.526837,-10.627051],[-44.494669,-10.624054],[-44.46387,-10.614649],[-44.436688,-10.600541],[-44.424079,-10.592376],[-44.419299,-10.590309],[-44.406509,-10.589431],[-44.310726,-10.600076],[-44.242023,-10.62669],[-44.231739,-10.629325],[-44.223161,-10.63041],[-44.217347,-10.629583],[-44.144561,-10.605451],[-44.135311,-10.600955],[-44.118981,-10.588966],[-44.104227,-10.572171],[-43.991754,-10.452953],[-43.983175,-10.447011],[-43.977439,-10.44577],[-43.965631,-10.445357],[-43.954573,-10.448147],[-43.947209,-10.448613],[-43.938553,-10.447166],[-43.925014,-10.441326],[-43.918787,-10.436055],[-43.914601,-10.430526],[-43.9115,-10.419674],[-43.907159,-10.386963],[-43.904317,-10.379521],[-43.899046,-10.374664],[-43.881166,-10.364897],[-43.87543,-10.360091],[-43.871193,-10.35544],[-43.866619,-10.345983],[-43.859875,-10.315701],[-43.848894,-10.291878],[-43.812824,-10.239065],[-43.811222,-10.233794],[-43.808587,-10.221081],[-43.802721,-10.203976],[-43.798897,-10.198654],[-43.794117,-10.195088],[-43.780423,-10.187647],[-43.768744,-10.179327],[-43.763241,-10.173177],[-43.759752,-10.167234],[-43.758822,-10.161343],[-43.759442,-10.129304],[-43.758228,-10.120829],[-43.754791,-10.110804],[-43.7512,-10.105016],[-43.715362,-10.065277],[-43.706991,-10.050291],[-43.701797,-10.0367],[-43.698929,-10.018406],[-43.698542,-10.005384],[-43.70097,-9.986367],[-43.70544,-9.970399],[-43.713399,-9.951227],[-43.712494,-9.94239],[-43.708851,-9.930298],[-43.685493,-9.881102],[-43.681643,-9.867511],[-43.679318,-9.851233],[-43.67906,-9.845084],[-43.68278,-9.802089],[-43.687974,-9.78147],[-43.690377,-9.777129],[-43.693322,-9.773305],[-43.696836,-9.769894],[-43.724845,-9.749172],[-43.731072,-9.741576],[-43.733759,-9.737338],[-43.737712,-9.72752],[-43.741821,-9.711242],[-43.743293,-9.685972],[-43.747324,-9.662976],[-43.776883,-9.577348],[-43.777917,-9.572904],[-43.779467,-9.568098],[-43.781792,-9.56386],[-43.788459,-9.556522],[-43.792102,-9.553215],[-43.795202,-9.549546],[-43.806029,-9.532855],[-43.81285,-9.525723],[-43.826906,-9.505879],[-43.830006,-9.500505],[-43.83551,-9.47999],[-43.830084,-9.447692],[-43.824219,-9.434979],[-43.821118,-9.432499],[-43.812979,-9.429088],[-43.773757,-9.430794],[-43.753525,-9.434204],[-43.713192,-9.446348],[-43.703115,-9.447123],[-43.695751,-9.446038],[-43.691539,-9.443351],[-43.687664,-9.440302],[-43.684486,-9.436581],[-43.681695,-9.432396],[-43.679525,-9.427538],[-43.671773,-9.393225],[-43.668078,-9.382993],[-43.658182,-9.364803],[-43.652524,-9.358912],[-43.644178,-9.352245],[-43.62604,-9.341032],[-43.615291,-9.337518],[-43.606868,-9.336587],[-43.574518,-9.346613],[-43.555966,-9.355966],[-43.550773,-9.357826],[-43.536303,-9.360617],[-43.524754,-9.360927],[-43.517442,-9.359842],[-43.511473,-9.35793],[-43.507313,-9.355191],[-43.501344,-9.348835],[-43.49814,-9.342737],[-43.492921,-9.327906],[-43.488477,-9.32124],[-43.481552,-9.314315],[-43.465507,-9.305065],[-43.456593,-9.303049],[-43.45003,-9.30398],[-43.421556,-9.331058],[-43.408973,-9.339533],[-43.405562,-9.343099],[-43.402901,-9.347284],[-43.379569,-9.412603],[-43.377011,-9.416789],[-43.373833,-9.420665],[-43.368898,-9.424437],[-43.362386,-9.427848],[-43.350475,-9.431155],[-43.343034,-9.431104],[-43.336703,-9.429863],[-43.332027,-9.427538],[-43.327944,-9.424747],[-43.321355,-9.417409],[-43.316885,-9.413534],[-43.311382,-9.409968],[-43.302338,-9.406247],[-43.293269,-9.40573],[-43.264098,-9.409193],[-43.250636,-9.408728],[-43.232162,-9.406247],[-43.222783,-9.405782],[-43.215703,-9.406557],[-43.211491,-9.409038],[-43.203146,-9.416169],[-43.19666,-9.41927],[-43.190536,-9.41989],[-43.185059,-9.418805],[-43.180925,-9.415859],[-43.178237,-9.411673],[-43.172656,-9.39617],[-43.170098,-9.391726],[-43.166559,-9.388316],[-43.142632,-9.377463],[-43.128551,-9.373278],[-43.120127,-9.373071],[-43.113461,-9.374311],[-43.094522,-9.383458],[-43.089483,-9.385318],[-43.04424,-9.394775],[-43.039254,-9.397256],[-43.036024,-9.400925],[-43.033931,-9.40573],[-43.032226,-9.424282],[-43.030365,-9.42976],[-43.02742,-9.434359],[-43.0222,-9.437925],[-43.015431,-9.437822],[-42.994166,-9.433584],[-42.985123,-9.433791],[-42.97887,-9.435806],[-42.964633,-9.443041],[-42.941999,-9.448467],[-42.936857,-9.450482],[-42.933059,-9.453583],[-42.930475,-9.457769],[-42.929157,-9.462523],[-42.929545,-9.467846],[-42.931405,-9.472651],[-42.938898,-9.486036],[-42.940991,-9.496009],[-42.941068,-9.499058],[-42.940784,-9.501125],[-42.939932,-9.504329],[-42.937916,-9.507998],[-42.935126,-9.511874],[-42.931586,-9.515181],[-42.927168,-9.517765],[-42.922129,-9.519832],[-42.899314,-9.525361],[-42.85048,-9.548874],[-42.844382,-9.549856],[-42.839421,-9.548409],[-42.83247,-9.541484],[-42.828595,-9.538487],[-42.820094,-9.533423],[-42.810792,-9.530012],[-42.797925,-9.527997],[-42.782267,-9.527428],[-42.752785,-9.521847],[-42.723743,-9.523501],[-42.68204,-9.529754],[-42.672713,-9.532493],[-42.668527,-9.535283],[-42.651784,-9.553215],[-42.646926,-9.557246],[-42.640363,-9.560863],[-42.629408,-9.565566],[-42.622406,-9.565772],[-42.61698,-9.564067],[-42.613517,-9.560553],[-42.608531,-9.551561],[-42.604371,-9.541898],[-42.593855,-9.50097],[-42.591917,-9.496578],[-42.588868,-9.492599],[-42.584269,-9.488671],[-42.575148,-9.485571],[-42.568559,-9.485726],[-42.562332,-9.486862],[-42.551997,-9.490583],[-42.505023,-9.499368],[-42.487711,-9.499988],[-42.486238,-9.498955],[-42.48368,-9.496629],[-42.481407,-9.492754],[-42.47996,-9.487638],[-42.479185,-9.476062],[-42.476988,-9.470326],[-42.469495,-9.465055],[-42.461046,-9.456012],[-42.440479,-9.420975],[-42.431616,-9.409038],[-42.424563,-9.40232],[-42.420609,-9.399271],[-42.416062,-9.397049],[-42.385082,-9.38723],[-42.375496,-9.382579],[-42.367744,-9.377774],[-42.365186,-9.375603],[-42.362861,-9.373226],[-42.360406,-9.369712],[-42.358262,-9.365526],[-42.35219,-9.344494],[-42.34679,-9.335967],[-42.337359,-9.32465],[-42.32971,-9.318501],[-42.318884,-9.311938],[-42.309815,-9.308424],[-42.303071,-9.308269],[-42.297568,-9.309716],[-42.284209,-9.315245],[-42.27204,-9.318139],[-42.264702,-9.317674],[-42.149592,-9.295091],[-42.140446,-9.290285],[-42.115693,-9.280777],[-42.107166,-9.275506],[-42.099569,-9.269305],[-42.072026,-9.234268],[-42.064016,-9.221349],[-42.059443,-9.217008],[-42.053577,-9.212616],[-42.042648,-9.20781],[-42.035517,-9.207241],[-42.030659,-9.209412],[-42.023683,-9.218042],[-42.016551,-9.221452],[-42.011875,-9.220419],[-42.001875,-9.213236],[-41.993426,-9.209257],[-41.987251,-9.20905],[-41.98198,-9.210755],[-41.973324,-9.216078],[-41.967743,-9.218662],[-41.961309,-9.220884],[-41.951672,-9.222744],[-41.945677,-9.221607],[-41.940509,-9.218713],[-41.935936,-9.215303],[-41.929606,-9.211841],[-41.923094,-9.211065],[-41.917126,-9.211582],[-41.906248,-9.214683],[-41.901235,-9.216801],[-41.896714,-9.219127],[-41.892786,-9.222227],[-41.889841,-9.226103],[-41.887283,-9.230444],[-41.881262,-9.24512],[-41.877283,-9.249358],[-41.871831,-9.252717],[-41.861987,-9.255197],[-41.855708,-9.254422],[-41.85005,-9.252613],[-41.84204,-9.246722],[-41.834754,-9.240159],[-41.82509,-9.229049],[-41.805246,-9.186312],[-41.802585,-9.181972],[-41.799614,-9.177941],[-41.796306,-9.174375],[-41.789097,-9.170551],[-41.748092,-9.155823],[-41.741503,-9.151379],[-41.73848,-9.147452],[-41.735767,-9.143266],[-41.733674,-9.138667],[-41.732667,-9.133292],[-41.733184,-9.12213],[-41.736465,-9.105232],[-41.73755,-9.052677],[-41.747136,-9.003223],[-41.747188,-9.000536],[-41.746929,-8.998313],[-41.745457,-8.993869],[-41.742511,-8.988598],[-41.734863,-8.981622],[-41.72644,-8.97878],[-41.713185,-8.976454],[-41.704813,-8.975834],[-41.669647,-8.978625],[-41.659596,-8.977074],[-41.622338,-8.965034],[-41.614018,-8.963484],[-41.607868,-8.963225],[-41.602003,-8.964],[-41.596577,-8.965396],[-41.591797,-8.967669],[-41.585389,-8.969995],[-41.57756,-8.972062],[-41.564667,-8.97356],[-41.557225,-8.97263],[-41.551644,-8.97015],[-41.547769,-8.967101],[-41.537614,-8.956404],[-41.529346,-8.950771],[-41.499968,-8.935475],[-41.49741,-8.933201],[-41.494593,-8.930204],[-41.489581,-8.921677],[-41.474285,-8.873928],[-41.469246,-8.865092],[-41.433641,-8.831347],[-41.430721,-8.827368],[-41.422996,-8.814294],[-41.417182,-8.806284],[-41.406589,-8.796207],[-41.403617,-8.792073],[-41.398915,-8.782926],[-41.385143,-8.740551],[-41.370803,-8.711871],[-41.342794,-8.727994],[-41.325637,-8.734764],[-41.318118,-8.736366],[-41.296854,-8.738071],[-41.288172,-8.737916],[-41.280937,-8.737141],[-41.264142,-8.73342],[-41.254324,-8.729389],[-41.241482,-8.721741],[-41.215928,-8.714196],[-41.159679,-8.708615],[-41.142031,-8.709391],[-41.121826,-8.712853],[-41.1118,-8.715902],[-41.105134,-8.719467],[-41.102188,-8.723033],[-41.100096,-8.727219],[-41.099114,-8.732748],[-41.098855,-8.738639],[-41.102654,-8.762152],[-41.102886,-8.76794],[-41.101129,-8.773831],[-41.09746,-8.779205],[-41.089786,-8.784942],[-41.082396,-8.78706],[-41.075239,-8.787887],[-41.06847,-8.787835],[-41.044492,-8.784425],[-41.016147,-8.77533],[-41.006303,-8.773366],[-41.001161,-8.773624],[-40.997027,-8.774865],[-40.990387,-8.780704],[-40.987467,-8.784631],[-40.985219,-8.789231],[-40.98403,-8.794553],[-40.983875,-8.806387],[-40.98279,-8.811658],[-40.980775,-8.816206],[-40.976589,-8.821477],[-40.970646,-8.827058],[-40.95814,-8.834448],[-40.949821,-8.837083],[-40.94287,-8.837186],[-40.938219,-8.835068],[-40.930364,-8.828401],[-40.925016,-8.825921],[-40.920649,-8.827006],[-40.916205,-8.829177],[-40.911322,-8.832587],[-40.898609,-8.844473],[-40.892951,-8.851294],[-40.889127,-8.856927],[-40.887266,-8.862404],[-40.887085,-8.868451],[-40.88786,-8.874238],[-40.892253,-8.891033],[-40.897601,-8.934596],[-40.897601,-8.941056],[-40.897085,-8.947205],[-40.892098,-8.969271],[-40.891168,-8.981157],[-40.895199,-9.011904],[-40.895199,-9.024772],[-40.893028,-9.036244],[-40.890057,-9.042755],[-40.88507,-9.050042],[-40.862358,-9.073864],[-40.859413,-9.078205],[-40.857475,-9.082546],[-40.856002,-9.087765],[-40.855072,-9.093346],[-40.857371,-9.130812],[-40.857139,-9.137892],[-40.856002,-9.144558],[-40.853134,-9.151792],[-40.849,-9.155823],[-40.843755,-9.158045],[-40.832179,-9.159544],[-40.82218,-9.16373],[-40.763165,-9.201815],[-40.757713,-9.203469],[-40.745414,-9.205019],[-40.724201,-9.205691],[-40.713995,-9.20874],[-40.708595,-9.212461],[-40.705029,-9.216956],[-40.703556,-9.221917],[-40.703505,-9.227809],[-40.704487,-9.233338],[-40.705029,-9.239126],[-40.704719,-9.245017],[-40.700792,-9.267083],[-40.699603,-9.271423],[-40.697846,-9.275919],[-40.694074,-9.282637],[-40.692033,-9.288632],[-40.69118,-9.295246],[-40.693454,-9.318449],[-40.693118,-9.323617],[-40.692136,-9.328836],[-40.690741,-9.334004],[-40.68994,-9.339326],[-40.690172,-9.344339],[-40.693893,-9.353124],[-40.701334,-9.366301],[-40.707768,-9.380667],[-40.718904,-9.397204],[-40.732108,-9.411932],[-40.739368,-9.418495],[-40.742417,-9.42237],[-40.758256,-9.453066],[-40.750763,-9.449552],[-40.725674,-9.446607],[-40.718594,-9.447537],[-40.707432,-9.453066],[-40.684385,-9.470481],[-40.67423,-9.474202],[-40.663559,-9.476372],[-40.643534,-9.485726],[-40.633251,-9.487896],[-40.621546,-9.486346],[-40.553566,-9.464125],[-40.539794,-9.454048],[-40.528218,-9.418288],[-40.512896,-9.410433],[-40.471555,-9.405937],[-40.450084,-9.395499],[-40.424426,-9.364131],[-40.406701,-9.357516],[-40.397735,-9.35979],[-40.377685,-9.369557],[-40.365438,-9.371831],[-40.352854,-9.370746],[-40.342803,-9.367077],[-40.334742,-9.36072],[-40.328179,-9.351315],[-40.328179,-9.316589],[-40.316371,-9.290647],[-40.273014,-9.104043],[-40.249837,-9.070919],[-40.211493,-9.063322],[-40.192141,-9.069007],[-40.177361,-9.076345],[-40.171935,-9.080996],[-40.162375,-9.093191],[-40.156872,-9.097481],[-40.150825,-9.098617],[-40.138526,-9.097946],[-40.132661,-9.100581],[-40.113928,-9.103372],[-40.092095,-9.091434],[-40.053855,-9.063322],[-40.011015,-9.0503],[-39.968511,-9.042859],[-39.953654,-9.032988],[-39.89619,-8.974594],[-39.889239,-8.959194],[-39.8811,-8.933615],[-39.876243,-8.909482],[-39.879111,-8.898836],[-39.885803,-8.890723],[-39.893503,-8.871448],[-39.898283,-8.848814],[-39.89619,-8.830572],[-39.882961,-8.817859],[-39.862936,-8.811865],[-39.796015,-8.807162],[-39.75408,-8.793468],[-39.731704,-8.788972],[-39.706692,-8.786957],[-39.689975,-8.782409],[-39.680622,-8.769955],[-39.677702,-8.744272],[-39.692223,-8.677661],[-39.69075,-8.658644],[-39.680182,-8.649704],[-39.661346,-8.645777],[-39.618739,-8.645002],[-39.605432,-8.641798],[-39.403248,-8.534052],[-39.382216,-8.528626],[-39.362036,-8.528988],[-39.325424,-8.550486],[-39.287984,-8.560562],[-39.272404,-8.576685],[-39.25163,-8.630687],[-39.237367,-8.641488],[-39.231941,-8.649032],[-39.227238,-8.657249],[-39.225223,-8.662365],[-39.221218,-8.677351],[-39.212278,-8.681537],[-39.197292,-8.679108],[-39.172203,-8.682157],[-39.16316,-8.685929],[-39.155253,-8.692854],[-39.151093,-8.69952],[-39.14528,-8.704481],[-39.112155,-8.708615],[-39.028697,-8.733213],[-39.006012,-8.744272],[-38.986504,-8.759672],[-38.978184,-8.77843],[-38.967668,-8.789386],[-38.943328,-8.790523],[-38.895631,-8.782151],[-38.865581,-8.770214],[-38.855297,-8.768508],[-38.847313,-8.770679],[-38.826849,-8.779981],[-38.797368,-8.785665],[-38.786051,-8.794347],[-38.77724,-8.805457],[-38.765303,-8.816309],[-38.726933,-8.830727],[-38.706107,-8.841217],[-38.697012,-8.854136],[-38.693886,-8.874342],[-38.656395,-8.966481],[-38.644612,-8.976919],[-38.625027,-8.980795],[-38.60831,-8.970667],[-38.602057,-8.947102],[-38.601437,-8.898836],[-38.589603,-8.85858],[-38.56392,-8.829228],[-38.527849,-8.819151],[-38.484751,-8.836773],[-38.465373,-8.86411],[-38.471858,-8.89124],[-38.512062,-8.946637],[-38.501546,-8.96028],[-38.481212,-9.000329],[-38.467672,-9.0087],[-38.448862,-9.014592],[-38.430827,-9.026012],[-38.409665,-9.034022],[-38.381709,-9.029216],[-38.358015,-9.015005],[-38.337008,-8.998158],[-38.320524,-8.987668],[-38.311222,-8.992629],[-38.304633,-9.003068],[-38.296391,-9.0087],[-38.287399,-9.013455],[-38.285978,-9.024668],[-38.288898,-9.038053],[-38.292954,-9.04906],[-38.300861,-9.058465],[-38.310369,-9.066061],[-38.314607,-9.075415],[-38.306597,-9.090039],[-38.311635,-9.099031],[-38.314555,-9.109314],[-38.315382,-9.120425],[-38.314064,-9.131587],[-38.308199,-9.143266],[-38.289492,-9.166055],[-38.285513,-9.175977],[-38.283523,-9.197888],[-38.249572,-9.301654],[-38.235196,-9.330374],[-38.2042,-9.392295],[-38.200118,-9.404232],[-38.199652,-9.409348],[-38.197895,-9.412758],[-38.189911,-9.41958],[-38.180145,-9.425833],[-38.169086,-9.430018],[-38.157252,-9.432499],[-38.120898,-9.434721],[-38.102707,-9.438907],[-38.087773,-9.445366],[-38.073252,-9.453738],[-38.021214,-9.472755],[-38.012403,-9.477974],[-38.010723,-9.496629],[-38.005659,-9.513269],[-37.997107,-9.526808],[-38.01155,-9.536782],[-38.015607,-9.541433],[-38.018294,-9.546084],[-38.022015,-9.561277],[-38.02558,-9.570888],[-38.036794,-9.586856],[-38.041729,-9.5959],[-38.045062,-9.605873],[-38.044882,-9.616829],[-38.040825,-9.626906],[-38.029663,-9.634295],[-38.020232,-9.637138],[-38.001654,-9.640083],[-37.996228,-9.642667],[-37.99243,-9.648196],[-37.993619,-9.655018],[-38.004806,-9.672846],[-38.014651,-9.702457],[-38.019896,-9.71119],[-38.02571,-9.718528],[-38.029999,-9.726538],[-38.029456,-9.73584],[-38.025089,-9.74757],[-38.001448,-9.786896],[-37.963905,-9.873557],[-37.956541,-9.883893],[-37.942691,-9.89552],[-37.92985,-9.900326],[-37.907655,-9.905907],[-37.902022,-9.911953],[-37.901712,-9.920945],[-37.903572,-9.930298],[-37.903391,-9.940427],[-37.898973,-9.950142],[-37.8497,-10.000268],[-37.836445,-10.008536],[-37.828977,-10.014479],[-37.821691,-10.022437],[-37.780841,-10.08078],[-37.77526,-10.099435],[-37.772805,-10.112819],[-37.774407,-10.166614],[-37.773322,-10.208989],[-37.783916,-10.305004],[-37.792675,-10.333736],[-37.79978,-10.348929],[-37.80717,-10.360349],[-37.813733,-10.368307],[-37.823396,-10.390993],[-37.830063,-10.39952],[-37.834197,-10.412491],[-37.83616,-10.422929],[-37.814663,-10.487112],[-37.81797,-10.517136],[-37.824843,-10.549795],[-37.825257,-10.559355],[-37.824016,-10.570104],[-37.818978,-10.580232],[-37.813655,-10.587726],[-37.792701,-10.599611],[-37.787714,-10.607776],[-37.784432,-10.616509],[-37.782365,-10.627568],[-37.786422,-10.641676],[-37.791925,-10.653458],[-37.801641,-10.665705],[-37.815671,-10.677901],[-37.871352,-10.71025],[-37.971036,-10.753245],[-37.996254,-10.759911],[-38.002507,-10.758981],[-38.011654,-10.755002],[-38.056147,-10.723531],[-38.076921,-10.713506],[-38.087256,-10.71056],[-38.109374,-10.70653],[-38.155624,-10.705289],[-38.168388,-10.706891],[-38.179912,-10.710405],[-38.191152,-10.715935],[-38.200014,-10.723738],[-38.20544,-10.731128],[-38.209652,-10.738104],[-38.21575,-10.766009],[-38.241872,-10.822802],[-38.244275,-10.83355],[-38.244844,-10.845022],[-38.243603,-10.872153],[-38.240038,-10.884503],[-38.233061,-10.897526],[-38.217016,-10.915251],[-38.204923,-10.924242],[-38.187896,-10.941709],[-38.18185,-10.968839],[-38.17676,-10.980001],[-38.153557,-10.998501],[-38.149113,-11.003049],[-38.130174,-11.01664],[-38.119037,-11.020981],[-38.109425,-11.02806],[-38.102087,-11.04222],[-38.09108,-11.075809],[-38.085938,-11.105937],[-38.078781,-11.12423],[-38.069273,-11.158595],[-38.062865,-11.16738],[-38.039972,-11.180868],[-38.012429,-11.192598],[-38.002507,-11.198024],[-37.998786,-11.201073],[-37.992766,-11.208514],[-37.986642,-11.219315],[-37.980829,-11.237763],[-37.980079,-11.250734],[-37.98287,-11.270423],[-37.992378,-11.305201],[-37.990492,-11.32365],[-37.99951,-11.342201],[-38.004109,-11.348558],[-38.005969,-11.357394],[-38.004109,-11.366179],[-37.998269,-11.376618],[-37.989329,-11.384731],[-37.96884,-11.399769],[-37.936955,-11.406745],[-37.927059,-11.410156],[-37.921427,-11.414755],[-37.914709,-11.41429],[-37.909179,-11.409536],[-37.902565,-11.40628],[-37.893547,-11.409277],[-37.883522,-11.419458],[-37.869983,-11.428398],[-37.858511,-11.434444],[-37.849183,-11.440852],[-37.840785,-11.452531],[-37.832466,-11.471909],[-37.818539,-11.496249],[-37.795905,-11.523741],[-37.762651,-11.539709],[-37.741308,-11.546633],[-37.696014,-11.556349],[-37.680485,-11.568906],[-37.671442,-11.568596],[-37.659453,-11.559139],[-37.650565,-11.542758],[-37.63408,-11.521622],[-37.572792,-11.540277],[-37.543284,-11.539089],[-37.482776,-11.518331]]],[[[-38.944203,-13.394627],[-38.915639,-13.383477],[-38.906239,-13.388849],[-38.896352,-13.453546],[-38.899403,-13.471368],[-38.916331,-13.483982],[-38.909535,-13.495212],[-38.91454,-13.508559],[-38.923818,-13.523126],[-38.929921,-13.537856],[-38.934397,-13.556248],[-38.931962,-13.568333],[-38.917391,-13.580966],[-38.914729,-13.592517],[-38.905044,-13.599892],[-38.906679,-13.606185],[-38.90672,-13.621403],[-38.895952,-13.630358],[-38.893275,-13.639286],[-38.902013,-13.671812],[-38.912814,-13.671781],[-38.918744,-13.667043],[-38.920336,-13.655495],[-38.937596,-13.655954],[-38.949489,-13.658024],[-38.957522,-13.632291],[-38.979056,-13.599695],[-38.985453,-13.573429],[-38.98378,-13.558212],[-38.98054,-13.547296],[-38.978342,-13.517348],[-38.973215,-13.508477],[-38.967885,-13.503351],[-38.967844,-13.498305],[-38.978342,-13.490167],[-39.026763,-13.472345],[-39.045888,-13.458185],[-39.033599,-13.442315],[-39.042551,-13.423923],[-39.0419,-13.405938],[-39.032582,-13.392511],[-39.015533,-13.38714],[-38.999582,-13.389825],[-38.983469,-13.394789],[-38.965647,-13.397882],[-38.944203,-13.394627]]],[[[-38.614613,-12.924981],[-38.592885,-12.964614],[-38.587473,-12.986912],[-38.60497,-12.996677],[-38.624989,-13.001642],[-38.642445,-13.013767],[-38.676666,-13.044529],[-38.718495,-13.072849],[-38.737375,-13.089939],[-38.752431,-13.112726],[-38.762685,-13.116795],[-38.770497,-13.121026],[-38.775868,-13.12656],[-38.779124,-13.133884],[-38.786529,-13.133884],[-38.786285,-13.118422],[-38.793365,-13.075128],[-38.791249,-13.058364],[-38.784901,-13.049737],[-38.759267,-13.037042],[-38.731923,-13.017755],[-38.66926,-12.961847],[-38.66926,-12.955011],[-38.678782,-12.953058],[-38.683339,-12.949965],[-38.682769,-12.944513],[-38.676666,-12.935235],[-38.674469,-12.937921],[-38.674306,-12.93906],[-38.673411,-12.940037],[-38.66926,-12.942071],[-38.670644,-12.924981],[-38.678944,-12.910089],[-38.689443,-12.895766],[-38.697133,-12.880548],[-38.683461,-12.873224],[-38.640777,-12.892755],[-38.622304,-12.905369],[-38.614613,-12.924981]]]]}}]}